TRANSPORTER-12 OBJECT AZ
1 62656U 25009AZ  26068.71026235  .00016057  00000+0  54903-3 0  9991
2 62656  97.3981 151.9913 0000987  45.3581 314.7740 15.30349724 63792
STARLINK-35527          
1 66092U 25236G   26068.38276250  .00019631  00000+0  67299-3 0  9991
2 66092  53.1581 105.5807 0000990  91.5245 268.5869 15.30209333 22892
