[{"OBJECT_NAME":"TRANSPORTER-12 OBJECT AZ","OBJECT_ID":"2025-009AZ","EPOCH":"2026-03-09T17:02:46.667040","MEAN_MOTION":15.30349724,"ECCENTRICITY":9.87e-5,"INCLINATION":97.3981,"RA_OF_ASC_NODE":151.9913,"ARG_OF_PERICENTER":45.3581,"MEAN_ANOMALY":314.774,"EPHEMERIS_TYPE":0,"CLASSIFICATION_TYPE":"U","NORAD_CAT_ID":62656,"ELEMENT_SET_NO":999,"REV_AT_EPOCH":6379,"BSTAR":0.00054902545,"MEAN_MOTION_DOT":0.00016057,"MEAN_MOTION_DDOT":0},{"OBJECT_NAME":"STARLINK-35527","OBJECT_ID":"2025-236G","EPOCH":"2026-03-09T09:11:10.680000","MEAN_MOTION":15.30209333,"ECCENTRICITY":9.908e-5,"INCLINATION":53.1581,"RA_OF_ASC_NODE":105.5807,"ARG_OF_PERICENTER":91.5245,"MEAN_ANOMALY":268.5869,"EPHEMERIS_TYPE":0,"CLASSIFICATION_TYPE":"U","NORAD_CAT_ID":66092,"ELEMENT_SET_NO":999,"REV_AT_EPOCH":2289,"BSTAR":0.00067298973,"MEAN_MOTION_DOT":0.00019631,"MEAN_MOTION_DDOT":0}]
